CCSDS_OMM_VERS = 2.0
CREATION_DATE  = 
ORIGINATOR     = 

OBJECT_NAME    = SL-14 R/B
OBJECT_ID      = 1986-046B
CENTER_NAME    = EARTH
REF_FRAME      = TEME
TIME_SYSTEM    = UTC
MEAN_ELEMENT_THEORY = SGP/SGP4

EPOCH          = 2025-12-07T06:12:03.818592
MEAN_MOTION    = 14.85475800
ECCENTRICITY   = .00233315
INCLINATION    = 82.4811
RA_OF_ASC_NODE = 167.4909
ARG_OF_PERICENTER = 169.9861
MEAN_ANOMALY   = 190.1825

EPHEMERIS_TYPE = 0
CLASSIFICATION_TYPE = U
NORAD_CAT_ID   = 16792
ELEMENT_SET_NO = 999
REV_AT_EPOCH   = 11268
BSTAR          = .10485183E-3
MEAN_MOTION_DOT = .933E-5
MEAN_MOTION_DDOT = 0

CCSDS_OMM_VERS = 2.0
CREATION_DATE  = 
ORIGINATOR     = 

OBJECT_NAME    = SL-14 R/B
OBJECT_ID      = 1986-055B
CENTER_NAME    = EARTH
REF_FRAME      = TEME
TIME_SYSTEM    = UTC
MEAN_ELEMENT_THEORY = SGP/SGP4

EPOCH          = 2025-12-07T03:23:29.690304
MEAN_MOTION    = 14.85522784
ECCENTRICITY   = .00174894
INCLINATION    = 82.5210
RA_OF_ASC_NODE = 213.6330
ARG_OF_PERICENTER = 279.6126
MEAN_ANOMALY   = 244.4791

EPHEMERIS_TYPE = 0
CLASSIFICATION_TYPE = U
NORAD_CAT_ID   = 16882
ELEMENT_SET_NO = 999
REV_AT_EPOCH   = 10562
BSTAR          = .98923912E-4
MEAN_MOTION_DOT = .88E-5
MEAN_MOTION_DDOT = 0

CCSDS_OMM_VERS = 2.0
CREATION_DATE  = 
ORIGINATOR     = 

OBJECT_NAME    = AJISAI (EGS)
OBJECT_ID      = 1986-061A
CENTER_NAME    = EARTH
REF_FRAME      = TEME
TIME_SYSTEM    = UTC
MEAN_ELEMENT_THEORY = SGP/SGP4

EPOCH          = 2025-12-07T07:04:39.741888
MEAN_MOTION    = 12.44514243
ECCENTRICITY   = .00112803
INCLINATION    = 50.0114
RA_OF_ASC_NODE = 17.4596
ARG_OF_PERICENTER = 52.2482
MEAN_ANOMALY   = 74.2043

EPHEMERIS_TYPE = 0
CLASSIFICATION_TYPE = U
NORAD_CAT_ID   = 16908
ELEMENT_SET_NO = 999
REV_AT_EPOCH   = 45649
BSTAR          = .1578226E-3
MEAN_MOTION_DOT = -.75E-6
MEAN_MOTION_DDOT = 0

CCSDS_OMM_VERS = 2.0
CREATION_DATE  = 
ORIGINATOR     = 

OBJECT_NAME    = COSMOS 1812
OBJECT_ID      = 1987-003A
CENTER_NAME    = EARTH
REF_FRAME      = TEME
TIME_SYSTEM    = UTC
MEAN_ELEMENT_THEORY = SGP/SGP4

EPOCH          = 2025-12-07T03:19:34.276224
MEAN_MOTION    = 15.74117720
ECCENTRICITY   = .00072235
INCLINATION    = 82.4875
RA_OF_ASC_NODE = 298.0732
ARG_OF_PERICENTER = 94.9409
MEAN_ANOMALY   = 265.2680

EPHEMERIS_TYPE = 0
CLASSIFICATION_TYPE = U
NORAD_CAT_ID   = 17295
ELEMENT_SET_NO = 999
REV_AT_EPOCH   = 12977
BSTAR          = .80691376E-3
MEAN_MOTION_DOT = .116647E-2
MEAN_MOTION_DDOT = 0

CCSDS_OMM_VERS = 2.0
CREATION_DATE  = 
ORIGINATOR     = 

OBJECT_NAME    = SL-14 R/B
OBJECT_ID      = 1987-024B
CENTER_NAME    = EARTH
REF_FRAME      = TEME
TIME_SYSTEM    = UTC
MEAN_ELEMENT_THEORY = SGP/SGP4

EPOCH          = 2025-12-06T23:43:36.186528
MEAN_MOTION    = 14.86015052
ECCENTRICITY   = .00175976
INCLINATION    = 82.5280
RA_OF_ASC_NODE = 179.8572
ARG_OF_PERICENTER = 203.7428
MEAN_ANOMALY   = 156.2979

EPHEMERIS_TYPE = 0
CLASSIFICATION_TYPE = U
NORAD_CAT_ID   = 17567
ELEMENT_SET_NO = 999
REV_AT_EPOCH   = 7436
BSTAR          = .93315694E-4
MEAN_MOTION_DOT = .842E-5
MEAN_MOTION_DDOT = 0

CCSDS_OMM_VERS = 2.0
CREATION_DATE  = 
ORIGINATOR     = 

OBJECT_NAME    = COSMOS 1833
OBJECT_ID      = 1987-027A
CENTER_NAME    = EARTH
REF_FRAME      = TEME
TIME_SYSTEM    = UTC
MEAN_ELEMENT_THEORY = SGP/SGP4

EPOCH          = 2025-12-07T04:42:20.625120
MEAN_MOTION    = 14.13019545
ECCENTRICITY   = .00223007
INCLINATION    = 70.9134
RA_OF_ASC_NODE = 160.4313
ARG_OF_PERICENTER = 339.4995
MEAN_ANOMALY   = 20.5229

EPHEMERIS_TYPE = 0
CLASSIFICATION_TYPE = U
NORAD_CAT_ID   = 17589
ELEMENT_SET_NO = 999
REV_AT_EPOCH   = 99724
BSTAR          = .70620056E-4
MEAN_MOTION_DOT = .84E-6
MEAN_MOTION_DDOT = 0

CCSDS_OMM_VERS = 2.0
CREATION_DATE  = 
ORIGINATOR     = 

OBJECT_NAME    = SL-16 R/B
OBJECT_ID      = 1987-027B
CENTER_NAME    = EARTH
REF_FRAME      = TEME
TIME_SYSTEM    = UTC
MEAN_ELEMENT_THEORY = SGP/SGP4

EPOCH          = 2025-12-07T02:02:28.904928
MEAN_MOTION    = 14.17152332
ECCENTRICITY   = .00075004
INCLINATION    = 71.0025
RA_OF_ASC_NODE = 111.6331
ARG_OF_PERICENTER = 265.5800
MEAN_ANOMALY   = 94.4467

EPHEMERIS_TYPE = 0
CLASSIFICATION_TYPE = U
NORAD_CAT_ID   = 17590
ELEMENT_SET_NO = 999
REV_AT_EPOCH   = 222
BSTAR          = -.40377741E-4
MEAN_MOTION_DOT = -.129E-5
MEAN_MOTION_DDOT = 0

CCSDS_OMM_VERS = 2.0
CREATION_DATE  = 
ORIGINATOR     = 

OBJECT_NAME    = SL-14 R/B
OBJECT_ID      = 1987-038B
CENTER_NAME    = EARTH
REF_FRAME      = TEME
TIME_SYSTEM    = UTC
MEAN_ELEMENT_THEORY = SGP/SGP4

EPOCH          = 2025-12-07T03:18:50.206176
MEAN_MOTION    = 14.85253616
ECCENTRICITY   = .00208051
INCLINATION    = 82.5022
RA_OF_ASC_NODE = 23.9771
ARG_OF_PERICENTER = 109.2597
MEAN_ANOMALY   = 251.0872

EPHEMERIS_TYPE = 0
CLASSIFICATION_TYPE = U
NORAD_CAT_ID   = 17912
ELEMENT_SET_NO = 999
REV_AT_EPOCH   = 6549
BSTAR          = .91887993E-4
MEAN_MOTION_DOT = .815E-5
MEAN_MOTION_DDOT = 0

CCSDS_OMM_VERS = 2.0
CREATION_DATE  = 
ORIGINATOR     = 

OBJECT_NAME    = COSMOS 1844
OBJECT_ID      = 1987-041A
CENTER_NAME    = EARTH
REF_FRAME      = TEME
TIME_SYSTEM    = UTC
MEAN_ELEMENT_THEORY = SGP/SGP4

EPOCH          = 2025-12-07T02:48:16.461216
MEAN_MOTION    = 14.14526818
ECCENTRICITY   = .00302373
INCLINATION    = 70.8985
RA_OF_ASC_NODE = 229.4306
ARG_OF_PERICENTER = 166.1184
MEAN_ANOMALY   = 194.0776

EPHEMERIS_TYPE = 0
CLASSIFICATION_TYPE = U
NORAD_CAT_ID   = 17973
ELEMENT_SET_NO = 999
REV_AT_EPOCH   = 99049
BSTAR          = -.41958593E-4
MEAN_MOTION_DOT = -.129E-5
MEAN_MOTION_DDOT = 0

CCSDS_OMM_VERS = 2.0
CREATION_DATE  = 
ORIGINATOR     = 

OBJECT_NAME    = SL-14 R/B
OBJECT_ID      = 1987-055B
CENTER_NAME    = EARTH
REF_FRAME      = TEME
TIME_SYSTEM    = UTC
MEAN_ELEMENT_THEORY = SGP/SGP4

EPOCH          = 2025-12-07T06:22:32.947968
MEAN_MOTION    = 14.85512623
ECCENTRICITY   = .00197255
INCLINATION    = 82.4999
RA_OF_ASC_NODE = 76.1469
ARG_OF_PERICENTER = 322.4627
MEAN_ANOMALY   = 37.5210

EPHEMERIS_TYPE = 0
CLASSIFICATION_TYPE = U
NORAD_CAT_ID   = 18153
ELEMENT_SET_NO = 999
REV_AT_EPOCH   = 5621
BSTAR          = .1100587E-3
MEAN_MOTION_DOT = .977E-5
MEAN_MOTION_DDOT = 0

CCSDS_OMM_VERS = 2.0
CREATION_DATE  = 
ORIGINATOR     = 

OBJECT_NAME    = COSMOS 1867
OBJECT_ID      = 1987-060A
CENTER_NAME    = EARTH
REF_FRAME      = TEME
TIME_SYSTEM    = UTC
MEAN_ELEMENT_THEORY = SGP/SGP4

EPOCH          = 2025-12-07T02:00:34.710048
MEAN_MOTION    = 14.31484825
ECCENTRICITY   = .00136486
INCLINATION    = 65.0098
RA_OF_ASC_NODE = 206.0418
ARG_OF_PERICENTER = 270.5484
MEAN_ANOMALY   = 89.4036

EPHEMERIS_TYPE = 0
CLASSIFICATION_TYPE = U
NORAD_CAT_ID   = 18187
ELEMENT_SET_NO = 999
REV_AT_EPOCH   = 668
BSTAR          = .48558552E-4
MEAN_MOTION_DOT = .29E-6
MEAN_MOTION_DDOT = 0

CCSDS_OMM_VERS = 2.0
CREATION_DATE  = 
ORIGINATOR     = 

OBJECT_NAME    = SL-14 R/B
OBJECT_ID      = 1988-001B
CENTER_NAME    = EARTH
REF_FRAME      = TEME
TIME_SYSTEM    = UTC
MEAN_ELEMENT_THEORY = SGP/SGP4

EPOCH          = 2025-12-07T06:07:00.832800
MEAN_MOTION    = 14.85415094
ECCENTRICITY   = .00179706
INCLINATION    = 82.5128
RA_OF_ASC_NODE = 282.3062
ARG_OF_PERICENTER = 179.0342
MEAN_ANOMALY   = 181.0912

EPHEMERIS_TYPE = 0
CLASSIFICATION_TYPE = U
NORAD_CAT_ID   = 18749
ELEMENT_SET_NO = 999
REV_AT_EPOCH   = 2830
BSTAR          = .112472E-3
MEAN_MOTION_DOT = .995E-5
MEAN_MOTION_DDOT = 0

