SL-14 R/B               
1 16792U 86046B   25341.25837753  .00000933  00000+0  10485-3 0  9999
2 16792  82.4811 167.4909 0023331 169.9861 190.1825 14.85475800112685
SL-14 R/B               
1 16882U 86055B   25341.14131586  .00000880  00000+0  98924-4 0  9994
2 16882  82.5210 213.6330 0017489 279.6126 244.4791 14.85522784105626
AJISAI (EGS)            
1 16908U 86061A   25341.29490442 -.00000075  00000+0  15782-3 0  9992
2 16908  50.0114  17.4596 0011280  52.2482  74.2043 12.44514243456492
COSMOS 1812             
1 17295U 87003A   25341.13859116  .00116647  00000+0  80691-3 0  9992
2 17295  82.4875 298.0732 0007223  94.9409 265.2680 15.74117720129770
SL-14 R/B               
1 17567U 87024B   25340.98861327  .00000842  00000+0  93316-4 0  9994
2 17567  82.5280 179.8572 0017597 203.7428 156.2979 14.86015052 74368
COSMOS 1833             
1 17589U 87027A   25341.19607205  .00000084  00000+0  70620-4 0  9999
2 17589  70.9134 160.4313 0022300 339.4995  20.5229 14.13019545997247
SL-16 R/B               
1 17590U 87027B   25341.08505677 -.00000129  00000+0 -40378-4 0  9998
2 17590  71.0025 111.6331 0007500 265.5800  94.4467 14.17152332  2222
SL-14 R/B               
1 17912U 87038B   25341.13808109  .00000815  00000+0  91888-4 0  9992
2 17912  82.5022  23.9771 0020805 109.2597 251.0872 14.85253616 65498
COSMOS 1844             
1 17973U 87041A   25341.11685719 -.00000129  00000+0 -41959-4 0  9995
2 17973  70.8985 229.4306 0030237 166.1184 194.0776 14.14526818990499
SL-14 R/B               
1 18153U 87055B   25341.26565912  .00000977  00000+0  11006-3 0  9997
2 18153  82.4999  76.1469 0019725 322.4627  37.5210 14.85512623 56213
COSMOS 1867             
1 18187U 87060A   25341.08373507  .00000029  00000+0  48559-4 0  9999
2 18187  65.0098 206.0418 0013648 270.5484  89.4036 14.31484825  6688
SL-14 R/B               
1 18749U 88001B   25341.25487075  .00000995  00000+0  11247-3 0  9999
2 18749  82.5128 282.3062 0017970 179.0342 181.0912 14.85415094 28306
